{
  "type": "FeatureCollection",
  "features": [
    {
      "type": "Feature",
      "properties": {
        "norad_id": 31236,
        "name": "FENGYUN 1C DEB",
        "group": "fengyun-1c-debris",
        "lat": 73.14382483922049,
        "lon": -96.70274574278814,
        "alt_km": 707.5669735529173,
        "timestamp": "2025-12-02T23:34:15.797546+00:00",
        "meta_object_name": "FENGYUN 1C DEB",
        "meta_object_id": "1999-025BLS",
        "meta_epoch": "2025-11-29T03:22:17.317344",
        "meta_mean_motion": 13.85531017,
        "meta_eccentricity": 0.03137558,
        "meta_inclination": 98.5443,
        "meta_ra_of_asc_node": 289.5348,
        "meta_arg_of_pericenter": 83.8092,
        "meta_mean_anomaly": 279.8709,
        "meta_ephemeris_type": 0,
        "meta_classification_type": "U",
        "meta_norad_cat_id": 31236,
        "meta_element_set_no": 999,
        "meta_rev_at_epoch": 60836,
        "meta_bstar": 0.0038993191,
        "meta_mean_motion_dot": 6.508e-05,
        "meta_mean_motion_ddot": 0,
        "tle_line1": "1 31236U 99025BLS 25333.14047821  .00006508  00000+0  38993-2 0  9995",
        "tle_line2": "2 31236  98.5443 289.5348 0313755  83.8092 279.8709 13.85531017608362"
      },
      "geometry": {
        "type": "Point",
        "coordinates": [
          -96.70274574278814,
          73.14382483922049
        ]
      }
    },
    {
      "type": "Feature",
      "properties": {
        "norad_id": 31237,
        "name": "FENGYUN 1C DEB",
        "group": "fengyun-1c-debris",
        "lat": -22.30985380111439,
        "lon": 152.60596521928812,
        "alt_km": 856.6156622687877,
        "timestamp": "2025-12-02T23:34:15.797556+00:00",
        "meta_object_name": "FENGYUN 1C DEB",
        "meta_object_id": "1999-025BLT",
        "meta_epoch": "2025-12-02T10:53:06.847008",
        "meta_mean_motion": 14.3133366,
        "meta_eccentricity": 0.008962,
        "meta_inclination": 98.4534,
        "meta_ra_of_asc_node": 335.59,
        "meta_arg_of_pericenter": 19.3327,
        "meta_mean_anomaly": 341.122,
        "meta_ephemeris_type": 0,
        "meta_classification_type": "U",
        "meta_norad_cat_id": 31237,
        "meta_element_set_no": 999,
        "meta_rev_at_epoch": 97119,
        "meta_bstar": 0.00075623,
        "meta_mean_motion_dot": 2.051e-05,
        "meta_mean_motion_ddot": 0,
        "tle_line1": "1 31237U 99025BLT 25336.45355147  .00002051  00000+0  75623-3 0  9997",
        "tle_line2": "2 31237  98.4534 335.5900 0089620  19.3327 341.1220 14.31333660971196"
      },
      "geometry": {
        "type": "Point",
        "coordinates": [
          152.60596521928812,
          -22.30985380111439
        ]
      }
    },
    {
      "type": "Feature",
      "properties": {
        "norad_id": 31239,
        "name": "FENGYUN 1C DEB",
        "group": "fengyun-1c-debris",
        "lat": 68.23923894770928,
        "lon": -50.53121003195554,
        "alt_km": 885.5988339844407,
        "timestamp": "2025-12-02T23:34:15.797566+00:00",
        "meta_object_name": "FENGYUN 1C DEB",
        "meta_object_id": "1999-025BLV",
        "meta_epoch": "2025-12-02T11:56:26.224800",
        "meta_mean_motion": 14.09840137,
        "meta_eccentricity": 0.0048979,
        "meta_inclination": 98.7578,
        "meta_ra_of_asc_node": 331.7138,
        "meta_arg_of_pericenter": 227.3641,
        "meta_mean_anomaly": 264.7159,
        "meta_ephemeris_type": 0,
        "meta_classification_type": "U",
        "meta_norad_cat_id": 31239,
        "meta_element_set_no": 999,
        "meta_rev_at_epoch": 95867,
        "meta_bstar": 0.00048104,
        "meta_mean_motion_dot": 8.12e-06,
        "meta_mean_motion_ddot": 0,
        "tle_line1": "1 31239U 99025BLV 25336.49752575  .00000812  00000+0  48104-3 0  9996",
        "tle_line2": "2 31239  98.7578 331.7138 0048979 227.3641 264.7159 14.09840137958678"
      },
      "geometry": {
        "type": "Point",
        "coordinates": [
          -50.53121003195554,
          68.23923894770928
        ]
      }
    },
    {
      "type": "Feature",
      "properties": {
        "norad_id": 31241,
        "name": "FENGYUN 1C DEB",
        "group": "fengyun-1c-debris",
        "lat": 28.346209043967253,
        "lon": -51.903484310205414,
        "alt_km": 736.550007215299,
        "timestamp": "2025-12-02T23:34:15.797576+00:00",
        "meta_object_name": "FENGYUN 1C DEB",
        "meta_object_id": "1999-025BLX",
        "meta_epoch": "2025-11-28T08:41:49.220736",
        "meta_mean_motion": 14.38600767,
        "meta_eccentricity": 0.00665101,
        "meta_inclination": 99.2336,
        "meta_ra_of_asc_node": 118.0957,
        "meta_arg_of_pericenter": 222.9441,
        "meta_mean_anomaly": 136.6541,
        "meta_ephemeris_type": 0,
        "meta_classification_type": "U",
        "meta_norad_cat_id": 31241,
        "meta_element_set_no": 999,
        "meta_rev_at_epoch": 97484,
        "meta_bstar": 0.00071768195,
        "meta_mean_motion_dot": 2.204e-05,
        "meta_mean_motion_ddot": 0,
        "tle_line1": "1 31241U 99025BLX 25332.36237524  .00002204  00000+0  71768-3 0  9992",
        "tle_line2": "2 31241  99.2336 118.0957 0066510 222.9441 136.6541 14.38600767974848"
      },
      "geometry": {
        "type": "Point",
        "coordinates": [
          -51.903484310205414,
          28.346209043967253
        ]
      }
    },
    {
      "type": "Feature",
      "properties": {
        "norad_id": 31243,
        "name": "FENGYUN 1C DEB",
        "group": "fengyun-1c-debris",
        "lat": 75.93932253270633,
        "lon": -124.49371366941358,
        "alt_km": 865.2620200567671,
        "timestamp": "2025-12-02T23:34:15.797586+00:00",
        "meta_object_name": "FENGYUN 1C DEB",
        "meta_object_id": "1999-025BLZ",
        "meta_epoch": "2025-12-02T09:26:08.464128",
        "meta_mean_motion": 14.07125765,
        "meta_eccentricity": 0.0065805,
        "meta_inclination": 98.7507,
        "meta_ra_of_asc_node": 16.9856,
        "meta_arg_of_pericenter": 196.9794,
        "meta_mean_anomaly": 162.9174,
        "meta_ephemeris_type": 0,
        "meta_classification_type": "U",
        "meta_norad_cat_id": 31243,
        "meta_element_set_no": 999,
        "meta_rev_at_epoch": 69162,
        "meta_bstar": 0.0010847,
        "meta_mean_motion_dot": 1.809e-05,
        "meta_mean_motion_ddot": 0,
        "tle_line1": "1 31243U 99025BLZ 25336.39315352  .00001809  00000+0  10847-2 0  9997",
        "tle_line2": "2 31243  98.7507  16.9856 0065805 196.9794 162.9174 14.07125765691627"
      },
      "geometry": {
        "type": "Point",
        "coordinates": [
          -124.49371366941358,
          75.93932253270633
        ]
      }
    },
    {
      "type": "Feature",
      "properties": {
        "norad_id": 31244,
        "name": "FENGYUN 1C DEB",
        "group": "fengyun-1c-debris",
        "lat": 23.47761827548819,
        "lon": -135.41571292016488,
        "alt_km": 819.6935252279645,
        "timestamp": "2025-12-02T23:34:15.797596+00:00",
        "meta_object_name": "FENGYUN 1C DEB",
        "meta_object_id": "1999-025BMA",
        "meta_epoch": "2025-11-29T11:08:59.157312",
        "meta_mean_motion": 14.06218558,
        "meta_eccentricity": 0.01023846,
        "meta_inclination": 99.0353,
        "meta_ra_of_asc_node": 37.1115,
        "meta_arg_of_pericenter": 211.8178,
        "meta_mean_anomaly": 147.6779,
        "meta_ephemeris_type": 0,
        "meta_classification_type": "U",
        "meta_norad_cat_id": 31244,
        "meta_element_set_no": 999,
        "meta_rev_at_epoch": 57453,
        "meta_bstar": 0.00052742349,
        "meta_mean_motion_dot": 8.65e-06,
        "meta_mean_motion_ddot": 0,
        "tle_line1": "1 31244U 99025BMA 25333.46457358  .00000865  00000+0  52742-3 0  9998",
        "tle_line2": "2 31244  99.0353  37.1115 0102384 211.8178 147.6779 14.06218558574534"
      },
      "geometry": {
        "type": "Point",
        "coordinates": [
          -135.41571292016488,
          23.47761827548819
        ]
      }
    },
    {
      "type": "Feature",
      "properties": {
        "norad_id": 31247,
        "name": "FENGYUN 1C DEB",
        "group": "fengyun-1c-debris",
        "lat": 50.23872305451072,
        "lon": 56.28442570396783,
        "alt_km": 839.0283526995063,
        "timestamp": "2025-12-02T23:34:15.797607+00:00",
        "meta_object_name": "FENGYUN 1C DEB",
        "meta_object_id": "1999-025BMD",
        "meta_epoch": "2025-11-26T21:58:44.154048",
        "meta_mean_motion": 14.05045725,
        "meta_eccentricity": 0.0058143,
        "meta_inclination": 99.365,
        "meta_ra_of_asc_node": 218.5854,
        "meta_arg_of_pericenter": 105.8084,
        "meta_mean_anomaly": 314.3757,
        "meta_ephemeris_type": 0,
        "meta_classification_type": "U",
        "meta_norad_cat_id": 31247,
        "meta_element_set_no": 999,
        "meta_rev_at_epoch": 95299,
        "meta_bstar": 0.0014532,
        "meta_mean_motion_dot": 2.331e-05,
        "meta_mean_motion_ddot": 0,
        "tle_line1": "1 31247U 99025BMD 25330.91578882  .00002331  00000+0  14532-2 0  9998",
        "tle_line2": "2 31247  99.3650 218.5854 0058143 105.8084 314.3757 14.05045725952998"
      },
      "geometry": {
        "type": "Point",
        "coordinates": [
          56.28442570396783,
          50.23872305451072
        ]
      }
    }
  ]
}